start=new Date('2022-12-27T00:00:00.000Z').valueOf();
sats=[{"MEAN_MOTION_DDOT":"0.0000000000000","ARG_OF_PERICENTER":"40.6842","APOAPSIS":"540.934","EPOCH":"2022-12-26T16:54:53.712576","REV_AT_EPOCH":"1928","CLASSIFICATION_TYPE":"U","OBJECT_NAME":"STARLINK-4599","SEMIMAJOR_AXIS":"6917.892","MEAN_ELEMENT_THEORY":"SGP4","NORAD_CAT_ID":"53631","MEAN_MOTION":"15.08836327","CENTER_NAME":"EARTH","MEAN_MOTION_DOT":"-0.00001650","TIME_SYSTEM":"UTC","COUNTRY_CODE":"US","GP_ID":"221526715","LAUNCH_DATE":"2022-08-28","PERIAPSIS":"538.579","RCS_SIZE":"LARGE","EPHEMERIS_TYPE":"0","ELEMENT_SET_NO":"999","BSTAR":"-0.00008559200000","RA_OF_ASC_NODE":"81.4993","SITE":"AFETR","TLE_LINE1":"1 53631U 22104AV  22360.70478834 -.00001650  00000-0 -85592-4 0  9998","MEAN_ANOMALY":"319.4277","FILE":"3723236","OBJECT_ID":"2022-104AV","REF_FRAME":"TEME","ECCENTRICITY":"0.00017020","TLE_LINE2":"2 53631  53.2192  81.4993 0001702  40.6842 319.4277 15.08836327 19286","DECAY_DATE":null,"INCLINATION":"53.2192","OBJECT_TYPE":"PAYLOAD","PERIOD":"95.438"},{"PERIOD":"95.437","OBJECT_TYPE":"PAYLOAD","DECAY_DATE":null,"INCLINATION":"53.2180","TLE_LINE1":"1 53632U 22104AW  22360.47390753  .00000304  00000-0  37194-4 0  9994","MEAN_ANOMALY":"313.8456","FILE":"3722937","TLE_LINE2":"2 53632  53.2180  72.9097 0001865  46.2691 313.8456 15.08844735 19715","ECCENTRICITY":"0.00018650","OBJECT_ID":"2022-104AW","REF_FRAME":"TEME","SITE":"AFETR","ELEMENT_SET_NO":"999","BSTAR":"0.00003719400000","RA_OF_ASC_NODE":"72.9097","EPHEMERIS_TYPE":"0","RCS_SIZE":"LARGE","LAUNCH_DATE":"2022-08-28","PERIAPSIS":"538.441","COUNTRY_CODE":"US","GP_ID":"221494717","CENTER_NAME":"EARTH","MEAN_MOTION_DOT":"0.00000304","TIME_SYSTEM":"UTC","MEAN_MOTION":"15.08844735","NORAD_CAT_ID":"53632","MEAN_ELEMENT_THEORY":"SGP4","SEMIMAJOR_AXIS":"6917.866","OBJECT_NAME":"STARLINK-4606","CLASSIFICATION_TYPE":"U","REV_AT_EPOCH":"1971","EPOCH":"2022-12-26T11:22:25.610592","ARG_OF_PERICENTER":"46.2691","MEAN_MOTION_DDOT":"0.0000000000000","APOAPSIS":"541.021"},{"EPOCH":"2022-12-26T14:38:30.898176","MEAN_MOTION_DDOT":"0.0000000000000","ARG_OF_PERICENTER":"72.1167","APOAPSIS":"540.700","OBJECT_NAME":"STARLINK-4593","REV_AT_EPOCH":"1940","CLASSIFICATION_TYPE":"U","SEMIMAJOR_AXIS":"6917.890","MEAN_ELEMENT_THEORY":"SGP4","CENTER_NAME":"EARTH","MEAN_MOTION_DOT":"-0.00001757","TIME_SYSTEM":"UTC","NORAD_CAT_ID":"53633","MEAN_MOTION":"15.08836846","PERIAPSIS":"538.810","LAUNCH_DATE":"2022-08-28","RCS_SIZE":"LARGE","EPHEMERIS_TYPE":"0","COUNTRY_CODE":"US","GP_ID":"221527953","SITE":"AFETR","BSTAR":"-0.00009236100000","ELEMENT_SET_NO":"999","RA_OF_ASC_NODE":"72.3390","DECAY_DATE":null,"INCLINATION":"53.2197","FILE":"3723236","TLE_LINE1":"1 53633U 22104AX  22360.61007984 -.00001757  00000-0 -92361-4 0  9994","MEAN_ANOMALY":"287.9974","OBJECT_ID":"2022-104AX","REF_FRAME":"TEME","TLE_LINE2":"2 53633  53.2197  72.3390 0001366  72.1167 287.9974 15.08836846 19402","ECCENTRICITY":"0.00013660","PERIOD":"95.438","OBJECT_TYPE":"PAYLOAD"},{"CENTER_NAME":"EARTH","TIME_SYSTEM":"UTC","MEAN_MOTION_DOT":"-0.00000188","MEAN_MOTION":"15.08839018","NORAD_CAT_ID":"53634","SEMIMAJOR_AXIS":"6917.883","MEAN_ELEMENT_THEORY":"SGP4","OBJECT_NAME":"STARLINK-4592","CLASSIFICATION_TYPE":"U","REV_AT_EPOCH":"1975","EPOCH":"2022-12-26T17:33:21.758112","ARG_OF_PERICENTER":"37.2730","MEAN_MOTION_DDOT":"0.0000000000000","APOAPSIS":"541.368","PERIOD":"95.438","OBJECT_TYPE":"PAYLOAD","DECAY_DATE":null,"INCLINATION":"53.2172","TLE_LINE1":"1 53634U 22104AY  22360.73150183 -.00000188  00000-0  62860-5 0  9996","MEAN_ANOMALY":"322.8424","FILE":"3723236","ECCENTRICITY":"0.00023410","TLE_LINE2":"2 53634  53.2172  71.6742 0002341  37.2730 322.8424 15.08839018 19752","OBJECT_ID":"2022-104AY","REF_FRAME":"TEME","SITE":"AFETR","BSTAR":"0.00000628600000","ELEMENT_SET_NO":"999","RA_OF_ASC_NODE":"71.6742","RCS_SIZE":"LARGE","EPHEMERIS_TYPE":"0","PERIAPSIS":"538.129","LAUNCH_DATE":"2022-08-28","COUNTRY_CODE":"US","GP_ID":"221526921"},{"PERIOD":"95.438","OBJECT_TYPE":"PAYLOAD","DECAY_DATE":null,"INCLINATION":"53.2169","TLE_LINE1":"1 53635U 22104AZ  22360.60271439 -.00001587  00000-0 -81638-4 0  9999","FILE":"3723236","MEAN_ANOMALY":"314.6012","ECCENTRICITY":"0.00018880","TLE_LINE2":"2 53635  53.2169  72.2909 0001888  45.5134 314.6012 15.08833075 19733","OBJECT_ID":"2022-104AZ","REF_FRAME":"TEME","SITE":"AFETR","ELEMENT_SET_NO":"999","BSTAR":"-0.00008163800000","RA_OF_ASC_NODE":"72.2909","RCS_SIZE":"LARGE","EPHEMERIS_TYPE":"0","LAUNCH_DATE":"2022-08-28","PERIAPSIS":"538.460","COUNTRY_CODE":"US","GP_ID":"221527127","CENTER_NAME":"EARTH","MEAN_MOTION_DOT":"-0.00001587","TIME_SYSTEM":"UTC","MEAN_MOTION":"15.08833075","NORAD_CAT_ID":"53635","SEMIMAJOR_AXIS":"6917.902","MEAN_ELEMENT_THEORY":"SGP4","OBJECT_NAME":"STARLINK-4587","CLASSIFICATION_TYPE":"U","REV_AT_EPOCH":"1973","EPOCH":"2022-12-26T14:27:54.523296","ARG_OF_PERICENTER":"45.5134","MEAN_MOTION_DDOT":"0.0000000000000","APOAPSIS":"541.073"},{"EPOCH":"2022-12-26T14:11:59.061120","APOAPSIS":"541.037","ARG_OF_PERICENTER":"41.4739","MEAN_MOTION_DDOT":"0.0000000000000","OBJECT_NAME":"STARLINK-4586","CLASSIFICATION_TYPE":"U","REV_AT_EPOCH":"1973","SEMIMAJOR_AXIS":"6917.878","MEAN_ELEMENT_THEORY":"SGP4","MEAN_MOTION_DOT":"0.00000194","TIME_SYSTEM":"UTC","CENTER_NAME":"EARTH","MEAN_MOTION":"15.08840652","NORAD_CAT_ID":"53636","RCS_SIZE":"LARGE","EPHEMERIS_TYPE":"0","LAUNCH_DATE":"2022-08-28","PERIAPSIS":"538.450","GP_ID":"221527747","COUNTRY_CODE":"US","SITE":"AFETR","RA_OF_ASC_NODE":"72.2246","ELEMENT_SET_NO":"999","BSTAR":"0.00003026600000","INCLINATION":"53.2189","DECAY_DATE":null,"ECCENTRICITY":"0.00018700","TLE_LINE2":"2 53636  53.2189  72.2246 0001870  41.4739 318.6395 15.08840652 19734","REF_FRAME":"TEME","OBJECT_ID":"2022-104BA","MEAN_ANOMALY":"318.6395","TLE_LINE1":"1 53636U 22104BA  22360.59165580  .00000194  00000-0  30266-4 0  9999","FILE":"3723236","PERIOD":"95.438","OBJECT_TYPE":"PAYLOAD"},{"SITE":"AFETR","RA_OF_ASC_NODE":"72.2463","ELEMENT_SET_NO":"999","BSTAR":"0.00007079600000","PERIAPSIS":"538.632","LAUNCH_DATE":"2022-08-28","EPHEMERIS_TYPE":"0","RCS_SIZE":"LARGE","GP_ID":"221527541","COUNTRY_CODE":"US","PERIOD":"95.438","OBJECT_TYPE":"PAYLOAD","INCLINATION":"53.2168","DECAY_DATE":null,"OBJECT_ID":"2022-104BB","REF_FRAME":"TEME","TLE_LINE2":"2 53637  53.2168  72.2463 0001609  50.8168 309.2967 15.08840029 19732","ECCENTRICITY":"0.00016090","FILE":"3723236","TLE_LINE1":"1 53637U 22104BB  22360.59533813  .00000839  00000-0  70796-4 0  9996","MEAN_ANOMALY":"309.2967","OBJECT_NAME":"STARLINK-4396","REV_AT_EPOCH":"1973","CLASSIFICATION_TYPE":"U","EPOCH":"2022-12-26T14:17:17.214432","APOAPSIS":"540.858","MEAN_MOTION_DDOT":"0.0000000000000","ARG_OF_PERICENTER":"50.8168","MEAN_MOTION_DOT":"0.00000839","TIME_SYSTEM":"UTC","CENTER_NAME":"EARTH","NORAD_CAT_ID":"53637","MEAN_MOTION":"15.08840029","SEMIMAJOR_AXIS":"6917.880","MEAN_ELEMENT_THEORY":"SGP4"},{"APOAPSIS":"541.152","ARG_OF_PERICENTER":"37.9680","MEAN_MOTION_DDOT":"0.0000000000000","EPOCH":"2022-12-26T17:13:35.622624","CLASSIFICATION_TYPE":"U","REV_AT_EPOCH":"1975","OBJECT_NAME":"STARLINK-4594","MEAN_ELEMENT_THEORY":"SGP4","SEMIMAJOR_AXIS":"6918.021","MEAN_MOTION":"15.08793904","NORAD_CAT_ID":"53638","MEAN_MOTION_DOT":"-0.00006028","TIME_SYSTEM":"UTC","CENTER_NAME":"EARTH","GP_ID":"221526509","COUNTRY_CODE":"US","RCS_SIZE":"LARGE","EPHEMERIS_TYPE":"0","LAUNCH_DATE":"2022-08-28","PERIAPSIS":"538.620","RA_OF_ASC_NODE":"71.5898","BSTAR":"-0.00036140000000","ELEMENT_SET_NO":"999","SITE":"AFETR","ECCENTRICITY":"0.00018300","TLE_LINE2":"2 53638  53.2189  71.5898 0001830  37.9680 322.1441 15.08793904 19753","OBJECT_ID":"2022-104BC","REF_FRAME":"TEME","MEAN_ANOMALY":"322.1441","TLE_LINE1":"1 53638U 22104BC  22360.71777341 -.00006028  00000-0 -36140-3 0  9999","FILE":"3723236","INCLINATION":"53.2189","DECAY_DATE":null,"OBJECT_TYPE":"PAYLOAD","PERIOD":"95.440"},{"ARG_OF_PERICENTER":"57.2520","MEAN_MOTION_DDOT":"0.0000000000000","APOAPSIS":"540.996","EPOCH":"2022-12-26T17:17:27.385440","CLASSIFICATION_TYPE":"U","REV_AT_EPOCH":"1958","OBJECT_NAME":"STARLINK-4422","MEAN_ELEMENT_THEORY":"SGP4","SEMIMAJOR_AXIS":"6917.898","MEAN_MOTION":"15.08834244","NORAD_CAT_ID":"53639","CENTER_NAME":"EARTH","TIME_SYSTEM":"UTC","MEAN_MOTION_DOT":"-0.00000346","COUNTRY_CODE":"US","GP_ID":"221526716","RCS_SIZE":"LARGE","EPHEMERIS_TYPE":"0","LAUNCH_DATE":"2022-08-28","PERIAPSIS":"538.530","BSTAR":"-0.00000363110000","ELEMENT_SET_NO":"999","RA_OF_ASC_NODE":"71.6065","SITE":"AFETR","TLE_LINE1":"1 53639U 22104BD  22360.72045585 -.00000346  00000-0 -36311-5 0  9998","MEAN_ANOMALY":"302.8644","FILE":"3723236","ECCENTRICITY":"0.00017820","TLE_LINE2":"2 53639  53.2170  71.6065 0001782  57.2520 302.8644 15.08834244 19589","REF_FRAME":"TEME","OBJECT_ID":"2022-104BD","DECAY_DATE":null,"INCLINATION":"53.2170","OBJECT_TYPE":"PAYLOAD","PERIOD":"95.438"},{"PERIOD":"95.438","OBJECT_TYPE":"PAYLOAD","DECAY_DATE":null,"INCLINATION":"53.2209","FILE":"3723067","TLE_LINE1":"1 53640U 22104BE  22360.58429126 -.00000789  00000-0 -31442-4 0  9991","MEAN_ANOMALY":"281.1114","ECCENTRICITY":"0.00020960","TLE_LINE2":"2 53640  53.2209  72.1792 0002096  79.0114 281.1114 15.08832779 18713","OBJECT_ID":"2022-104BE","REF_FRAME":"TEME","SITE":"AFETR","ELEMENT_SET_NO":"999","BSTAR":"-0.00003144200000","RA_OF_ASC_NODE":"72.1792","EPHEMERIS_TYPE":"0","RCS_SIZE":"LARGE","LAUNCH_DATE":"2022-08-28","PERIAPSIS":"538.317","COUNTRY_CODE":"US","GP_ID":"221498301","CENTER_NAME":"EARTH","TIME_SYSTEM":"UTC","MEAN_MOTION_DOT":"-0.00000789","MEAN_MOTION":"15.08832779","NORAD_CAT_ID":"53640","SEMIMAJOR_AXIS":"6917.902","MEAN_ELEMENT_THEORY":"SGP4","OBJECT_NAME":"STARLINK-4597","CLASSIFICATION_TYPE":"U","REV_AT_EPOCH":"1871","EPOCH":"2022-12-26T14:01:22.764864","ARG_OF_PERICENTER":"79.0114","MEAN_MOTION_DDOT":"0.0000000000000","APOAPSIS":"541.217"}];
